[{"OBJECT_NAME":"CUTE-1.7+APD II (CO-65)","OBJECT_ID":"2008-021C","EPOCH":"2026-04-05T21:48:34.685856","MEAN_MOTION":15.08770328,"ECCENTRICITY":0.0007238,"INCLINATION":97.8239,"RA_OF_ASC_NODE":75.8835,"ARG_OF_PERICENTER":276.0908,"MEAN_ANOMALY":83.9495,"EPHEMERIS_TYPE":0,"CLASSIFICATION_TYPE":"U","NORAD_CAT_ID":32785,"ELEMENT_SET_NO":999,"REV_AT_EPOCH":97429,"BSTAR":0.00044575,"MEAN_MOTION_DOT":6.942e-5,"MEAN_MOTION_DDOT":0},{"OBJECT_NAME":"SEEDS II (CO-66)","OBJECT_ID":"2008-021J","EPOCH":"2026-04-05T20:55:55.047360","MEAN_MOTION":15.30325052,"ECCENTRICITY":0.0003094,"INCLINATION":97.7531,"RA_OF_ASC_NODE":90.4626,"ARG_OF_PERICENTER":158.0195,"MEAN_ANOMALY":202.1178,"EPHEMERIS_TYPE":0,"CLASSIFICATION_TYPE":"U","NORAD_CAT_ID":32791,"ELEMENT_SET_NO":999,"REV_AT_EPOCH":97622,"BSTAR":0.00082179,"MEAN_MOTION_DOT":0.00024078,"MEAN_MOTION_DDOT":0},{"OBJECT_NAME":"YUBILEINY (RS30)","OBJECT_ID":"2008-025A","EPOCH":"2026-04-05T19:53:53.486592","MEAN_MOTION":12.43177197,"ECCENTRICITY":0.0020425,"INCLINATION":82.5059,"RA_OF_ASC_NODE":40.4392,"ARG_OF_PERICENTER":107.4168,"MEAN_ANOMALY":252.9147,"EPHEMERIS_TYPE":0,"CLASSIFICATION_TYPE":"U","NORAD_CAT_ID":32953,"ELEMENT_SET_NO":999,"REV_AT_EPOCH":81070,"BSTAR":0.00033657,"MEAN_MOTION_DOT":5.7e-7,"MEAN_MOTION_DDOT":0},{"OBJECT_NAME":"KKS-1 (KISEKI)","OBJECT_ID":"2009-002H","EPOCH":"2026-04-05T19:02:11.887296","MEAN_MOTION":14.82937481,"ECCENTRICITY":0.0008295,"INCLINATION":98.1186,"RA_OF_ASC_NODE":17.1028,"ARG_OF_PERICENTER":155.4234,"MEAN_ANOMALY":204.7376,"EPHEMERIS_TYPE":0,"CLASSIFICATION_TYPE":"U","NORAD_CAT_ID":33499,"ELEMENT_SET_NO":999,"REV_AT_EPOCH":92546,"BSTAR":0.00028867,"MEAN_MOTION_DOT":2.288e-5,"MEAN_MOTION_DDOT":0},{"OBJECT_NAME":"SWISSCUBE","OBJECT_ID":"2009-051B","EPOCH":"2026-04-05T17:03:57.178080","MEAN_MOTION":14.62339444,"ECCENTRICITY":0.0008088,"INCLINATION":98.4077,"RA_OF_ASC_NODE":2.3311,"ARG_OF_PERICENTER":79.3745,"MEAN_ANOMALY":280.8366,"EPHEMERIS_TYPE":0,"CLASSIFICATION_TYPE":"U","NORAD_CAT_ID":35932,"ELEMENT_SET_NO":999,"REV_AT_EPOCH":87856,"BSTAR":0.00036358,"MEAN_MOTION_DOT":1.788e-5,"MEAN_MOTION_DDOT":0},{"OBJECT_NAME":"BEESAT-1","OBJECT_ID":"2009-051C","EPOCH":"2026-04-05T16:24:01.179072","MEAN_MOTION":14.61600352,"ECCENTRICITY":0.0006551,"INCLINATION":98.4007,"RA_OF_ASC_NODE":2.0883,"ARG_OF_PERICENTER":91.1632,"MEAN_ANOMALY":269.0319,"EPHEMERIS_TYPE":0,"CLASSIFICATION_TYPE":"U","NORAD_CAT_ID":35933,"ELEMENT_SET_NO":999,"REV_AT_EPOCH":87859,"BSTAR":0.0003102,"MEAN_MOTION_DOT":1.493e-5,"MEAN_MOTION_DDOT":0},{"OBJECT_NAME":"ITUPSAT1","OBJECT_ID":"2009-051E","EPOCH":"2026-04-05T06:26:30.647328","MEAN_MOTION":14.60328443,"ECCENTRICITY":0.0008679,"INCLINATION":98.4093,"RA_OF_ASC_NODE":0.9348,"ARG_OF_PERICENTER":102.1469,"MEAN_ANOMALY":258.0703,"EPHEMERIS_TYPE":0,"CLASSIFICATION_TYPE":"U","NORAD_CAT_ID":35935,"ELEMENT_SET_NO":999,"REV_AT_EPOCH":87809,"BSTAR":0.00029225,"MEAN_MOTION_DOT":1.364e-5,"MEAN_MOTION_DDOT":0},{"OBJECT_NAME":"XIWANG-1 (HOPE-1)","OBJECT_ID":"2009-072B","EPOCH":"2026-04-05T19:36:04.205376","MEAN_MOTION":13.16437487,"ECCENTRICITY":0.0008008,"INCLINATION":100.3968,"RA_OF_ASC_NODE":50.8279,"ARG_OF_PERICENTER":42.3708,"MEAN_ANOMALY":317.8022,"EPHEMERIS_TYPE":0,"CLASSIFICATION_TYPE":"U","NORAD_CAT_ID":36122,"ELEMENT_SET_NO":999,"REV_AT_EPOCH":78348,"BSTAR":4.9733e-5,"MEAN_MOTION_DOT":-2.5e-7,"MEAN_MOTION_DDOT":0},{"OBJECT_NAME":"O/OREOS (USA 219)","OBJECT_ID":"2010-062C","EPOCH":"2026-04-05T20:40:33.188736","MEAN_MOTION":14.93450456,"ECCENTRICITY":0.0015673,"INCLINATION":71.971,"RA_OF_ASC_NODE":244.1256,"ARG_OF_PERICENTER":210.6765,"MEAN_ANOMALY":149.3491,"EPHEMERIS_TYPE":0,"CLASSIFICATION_TYPE":"U","NORAD_CAT_ID":37224,"ELEMENT_SET_NO":999,"REV_AT_EPOCH":10584,"BSTAR":0.00036427,"MEAN_MOTION_DOT":3.78e-5,"MEAN_MOTION_DDOT":0},{"OBJECT_NAME":"JUGNU","OBJECT_ID":"2011-058B","EPOCH":"2026-04-05T04:04:09.336864","MEAN_MOTION":14.13753627,"ECCENTRICITY":0.00184374,"INCLINATION":19.962,"RA_OF_ASC_NODE":32.0253,"ARG_OF_PERICENTER":350.5168,"MEAN_ANOMALY":40.3194,"EPHEMERIS_TYPE":0,"CLASSIFICATION_TYPE":"U","NORAD_CAT_ID":37839,"ELEMENT_SET_NO":999,"REV_AT_EPOCH":74868,"BSTAR":0.00015801979,"MEAN_MOTION_DOT":5.7e-6,"MEAN_MOTION_DDOT":0},{"OBJECT_NAME":"SRMSAT","OBJECT_ID":"2011-058D","EPOCH":"2026-04-05T11:52:35.034816","MEAN_MOTION":14.11557864,"ECCENTRICITY":0.00119027,"INCLINATION":19.9707,"RA_OF_ASC_NODE":139.4576,"ARG_OF_PERICENTER":123.4189,"MEAN_ANOMALY":11.6801,"EPHEMERIS_TYPE":0,"CLASSIFICATION_TYPE":"U","NORAD_CAT_ID":37841,"ELEMENT_SET_NO":999,"REV_AT_EPOCH":74753,"BSTAR":0.00011204728,"MEAN_MOTION_DOT":4.71e-6,"MEAN_MOTION_DDOT":0},{"OBJECT_NAME":"STRAND-1","OBJECT_ID":"2013-009E","EPOCH":"2026-04-05T18:54:04.972320","MEAN_MOTION":14.37119777,"ECCENTRICITY":0.0009858,"INCLINATION":98.3907,"RA_OF_ASC_NODE":277.808,"ARG_OF_PERICENTER":88.3552,"MEAN_ANOMALY":271.8764,"EPHEMERIS_TYPE":0,"CLASSIFICATION_TYPE":"U","NORAD_CAT_ID":39090,"ELEMENT_SET_NO":999,"REV_AT_EPOCH":68666,"BSTAR":0.00018103,"MEAN_MOTION_DOT":4.95e-6,"MEAN_MOTION_DDOT":0},{"OBJECT_NAME":"ZACUBE-1 (TSHEPISOSAT)","OBJECT_ID":"2013-066B","EPOCH":"2026-04-05T20:56:02.341248","MEAN_MOTION":15.00604028,"ECCENTRICITY":0.004499,"INCLINATION":97.8144,"RA_OF_ASC_NODE":57.829,"ARG_OF_PERICENTER":131.8826,"MEAN_ANOMALY":228.625,"EPHEMERIS_TYPE":0,"CLASSIFICATION_TYPE":"U","NORAD_CAT_ID":39417,"ELEMENT_SET_NO":999,"REV_AT_EPOCH":66988,"BSTAR":0.00043502,"MEAN_MOTION_DOT":5.552e-5,"MEAN_MOTION_DDOT":0},{"OBJECT_NAME":"GOMX-1","OBJECT_ID":"2013-066Q","EPOCH":"2026-04-05T19:05:03.605568","MEAN_MOTION":14.69211885,"ECCENTRICITY":0.0128044,"INCLINATION":97.6535,"RA_OF_ASC_NODE":300.8091,"ARG_OF_PERICENTER":310.458,"MEAN_ANOMALY":48.5518,"EPHEMERIS_TYPE":0,"CLASSIFICATION_TYPE":"U","NORAD_CAT_ID":39430,"ELEMENT_SET_NO":999,"REV_AT_EPOCH":65928,"BSTAR":0.000496,"MEAN_MOTION_DOT":3.26e-5,"MEAN_MOTION_DDOT":0},{"OBJECT_NAME":"CUBEBUG-2 (LO-74)","OBJECT_ID":"2013-066AA","EPOCH":"2026-04-05T18:31:21.683136","MEAN_MOTION":14.93276645,"ECCENTRICITY":0.0056656,"INCLINATION":97.8849,"RA_OF_ASC_NODE":44.5005,"ARG_OF_PERICENTER":267.6127,"MEAN_ANOMALY":91.8605,"EPHEMERIS_TYPE":0,"CLASSIFICATION_TYPE":"U","NORAD_CAT_ID":39440,"ELEMENT_SET_NO":999,"REV_AT_EPOCH":66618,"BSTAR":0.00047957,"MEAN_MOTION_DOT":5.118e-5,"MEAN_MOTION_DDOT":0},{"OBJECT_NAME":"FUNCUBE-1 (AO-73)","OBJECT_ID":"2013-066AE","EPOCH":"2026-04-05T15:28:18.946272","MEAN_MOTION":15.08450938,"ECCENTRICITY":0.0039165,"INCLINATION":97.8238,"RA_OF_ASC_NODE":65.6582,"ARG_OF_PERICENTER":90.6364,"MEAN_ANOMALY":269.9352,"EPHEMERIS_TYPE":0,"CLASSIFICATION_TYPE":"U","NORAD_CAT_ID":39444,"ELEMENT_SET_NO":999,"REV_AT_EPOCH":66872,"BSTAR":0.00071111,"MEAN_MOTION_DOT":0.00011215,"MEAN_MOTION_DDOT":0},{"OBJECT_NAME":"UWE-3","OBJECT_ID":"2013-066AG","EPOCH":"2026-04-05T19:30:32.335200","MEAN_MOTION":14.964696,"ECCENTRICITY":0.0049011,"INCLINATION":97.8637,"RA_OF_ASC_NODE":51.463,"ARG_OF_PERICENTER":199.039,"MEAN_ANOMALY":160.9001,"EPHEMERIS_TYPE":0,"CLASSIFICATION_TYPE":"U","NORAD_CAT_ID":39446,"ELEMENT_SET_NO":999,"REV_AT_EPOCH":66675,"BSTAR":0.0004964,"MEAN_MOTION_DOT":5.712e-5,"MEAN_MOTION_DDOT":0}]
